[
    {
        "Altitude(m)": 622205.879078892,
        "Argument of Periapsis(deg)": 0.0,
        "Eccentricity": 0.0,
        "Inclination(deg)": 60.0,
        "Latitude(deg)": -52.16246739836358,
        "Longitude(deg)": -12.299461354979353,
        "Mean Anomaly(deg)": -114.5455,
        "RAAN(deg)": 220.00000000000003,
        "Satellite Name": "Test1 983",
        "Satellite Number": 983,
        "Semi-Major Axis(m)": 6980739.136638005,
        "Time(s)": 0
    },
    {
        "Altitude(m)": 622344.7850275274,
        "Argument of Periapsis(deg)": 0.00010418945913296404,
        "Eccentricity": 0.0,
        "Inclination(deg)": 60.0,
        "Latitude(deg)": -52.52004545347557,
        "Longitude(deg)": -11.518246564292932,
        "Mean Anomaly(deg)": -113.92539385453817,
        "RAAN(deg)": 219.99957995086027,
        "Satellite Name": "Test1 983",
        "Satellite Number": 983,
        "Semi-Major Axis(m)": 6980739.136638005,
        "Time(s)": 10
    }
]